[{"OBJECT_NAME":"GENMAT-1","OBJECT_ID":"2023-174W","EPOCH":"2026-03-09T18:03:23.351040","MEAN_MOTION":15.32594666,"ECCENTRICITY":0.00074416,"INCLINATION":97.3728,"RA_OF_ASC_NODE":146.8236,"ARG_OF_PERICENTER":169.2515,"MEAN_ANOMALY":190.8888,"EPHEMERIS_TYPE":0,"CLASSIFICATION_TYPE":"U","NORAD_CAT_ID":58276,"ELEMENT_SET_NO":999,"REV_AT_EPOCH":12973,"BSTAR":0.00042157222,"MEAN_MOTION_DOT":0.0001321,"MEAN_MOTION_DDOT":0},{"OBJECT_NAME":"STARLINK-34960","OBJECT_ID":"2025-176X","EPOCH":"2026-03-09T22:45:01.825920","MEAN_MOTION":15.30211699,"ECCENTRICITY":0.00014589,"INCLINATION":53.1605,"RA_OF_ASC_NODE":151.267,"ARG_OF_PERICENTER":81.942,"MEAN_ANOMALY":278.1747,"EPHEMERIS_TYPE":0,"CLASSIFICATION_TYPE":"U","NORAD_CAT_ID":65219,"ELEMENT_SET_NO":999,"REV_AT_EPOCH":3316,"BSTAR":0.00073692971,"MEAN_MOTION_DOT":0.00021538,"MEAN_MOTION_DDOT":0}]
